#dP2021 10 18  0  0  0.00000000      97 __u+U IGS14 FIT  IAC
## 2180  86400.00000000   900.00000000 59505 0.0000000000000
+  124   C01C02C03C04C05C06C07C08C09C10C11C12C13C14C16C19C20
+        C21C22C23C24C25C26C27C28C29C30C32C33C34C35C36C37C38
+        C39C40C41C42C43C44C45C46C59C60E01E02E03E04E05E07E08
+        E09E11E12E13E14E15E18E19E21E24E25E26E27E30E31E33E36
+        G01G02G03G04G05G06G07G08G09G10G12G13G14G15G16G17G18
+        G19G20G21G22G23G24G25G26G27G28G29G30G31G32J01J02J03
+        J07R01R02R03R04R05R07R08R09R11R12R13R14R15R16R17R18
+        R19R20R21R22R24  0  0  0  0  0  0  0  0  0  0  0  0
++         0  0  0  0  0  0  0  0  0  0  0  0  0  0  0  0  0
++         0  0  0  0  0  0  0  0  0  0  0  0  0  0  0  0  0
++         0  0  0  0  0  0  0  0  0  0  0  0  0  0  0  0  0
++         0  0  0  0  0  0  0  0  0  0  0  0  0  0  0  0  0
++         0  0  0  0  0  0  0  0  0  0  0  0  0  0  0  0  0
++         0  0  0  0  0  0  0  0  0  0  0  0  0  0  0  0  0
++         0  0  0  0  0  0  0  0  0  0  0  0  0  0  0  0  0
++         0  0  0  0  0  0  0  0  0  0  0  0  0  0  0  0  0
%c M  cc GPS ccc cccc cccc cccc cccc ccccc ccccc ccccc ccccc
%c cc cc ccc ccc cccc cccc cccc cccc ccccc ccccc ccccc ccccc
%f  1.2500000  1.025000000  0.00000000000  0.000000000000000
%f  0.0000000  0.000000000  0.00000000000  0.000000000000000
%i    0    0    0    0      0      0      0      0         0
%i    0    0    0    0      0      0      0      0         0
/* INFORMATION & ANALYSIS CENTER (IAC)            FINAL DATA
/* S/V CLOCKS ARE ALIGNED TO GNSS TIME                      
/* G:C1WC2W R:C1PC2P E:C1XC5X C:C2IC6I J:C1CC2S             
/* PCV:IGS14_2163 OL/AL:FES2004  NONE     YN ORB:CoN CLK:CoN
*  2021 10 18  9 30  0.00000000
PC01 -34371.033916  24441.425182   -231.190527   -540.584995
PC02   4415.557095  41947.312505    201.712518    239.616121
PC03 -14789.759670  39513.554197   -721.988040 999999.999999
PC04 -39632.289088  14425.066289   -506.598558   -316.310439
PC05  21866.007565  36058.591685    510.941217    271.954005
PC06  -9419.046703  23228.425787  33877.790578    352.786229
PC07 -16833.200844  37906.314536  -7962.343701   -227.833404
PC08    351.412242  35193.355049 -23106.705948   -853.324853
PC09    553.562929  25036.820916  34272.050312   -193.802719
PC10 -10520.297083  38346.192458 -14452.795842      7.391189
PC11  -8583.372105  13466.048531 -22825.504517    637.897732
PC12 -24342.965986   3866.261251 -13075.671329    737.520290
PC13   5261.802451  37985.082455 -17076.608516    445.952857
PC14 -13709.672360  23388.857792   6741.537080    580.084877
PC16 -13579.877428  21692.855161  33599.339240   -759.239743
PC19   5680.457042 -22778.180682 -15063.036231    947.173923
PC20  18514.886366 -20842.531427    914.569068   -792.720258
PC21 -21010.146168   6271.965727 -17265.189228   -932.056385
PC22 -10941.393400 -11581.040625 -22918.153033   -958.925543
PC23  14742.256372  21702.085518  -9490.484080   -971.535656
PC24 -10494.554231  15296.364111  20837.312516   -973.457677
PC25   4307.534638  26538.919837   7429.378516   -838.254160
PC26 -17538.637060  -2999.238141  21499.726148    834.503627
PC27  27422.809753   2254.952464   4666.986060    615.063161
PC28  21103.718329  13162.892951 -12637.415813    -13.468886
PC29  -3011.635029 -16253.617047  22478.979369    462.098260
PC30  17830.112119 -10309.850081  18832.976716    483.801927
PC32  20946.754605  -6335.194059  17318.670205   -968.668876
PC33  -5628.515324  22861.729140  14985.307187   -968.544466
PC34 -17042.579352  10773.737976 -19293.943572   -557.191321
PC35 -21214.573251 -12641.751176  12965.024954    -40.848905
PC36  -3412.851994 -26576.347834  -7779.993391   -781.481971
PC37  17593.235185   4469.425796 -21167.998242   -876.324670
PC38  -6796.748990  30742.376543 -27947.261715    183.100863
PC39 -19388.079810  20407.584656  31334.149683     33.673457
PC40 -23618.307528  34543.818272  -5775.062190    209.546907
PC41  10716.215478  11914.322390  22886.028804   -922.145609
PC42 -18884.145522  20480.183914  -1720.014002   -958.632463
PC43   2243.382803  16341.795095 -22516.186756   -965.058644
PC44 -27495.479371  -1395.688429  -4482.987380    435.747220
PC45 -14817.525733 -21580.279528   9712.277581    576.989853
PC46   9586.592034 -16448.291994 -20406.919317     34.314143
PC59      0.000000      0.000000      0.000000 999999.999999
PC60   7275.059412  41498.677144  -1670.091966     -0.594961
PE01 -15423.291508  -7285.624278  24200.663721   -497.990683
PE02  15462.774158   7093.589756 -24214.044380    254.262864
PE03  25640.208960   1213.464993  14721.709328   -486.382086
PE04 -26668.578181  12520.290250   2863.893515   -880.307305
PE05   9537.369740  14486.024518  23981.651881   -240.863179
PE07  11916.549256 -19155.797027 -19161.343358   -597.290589
PE08  26462.918625 -12844.739487  -3259.980576   5919.708238
PE09 -11694.481190  19108.498699  19349.104082   5494.249586
PE11   -715.238602  18583.456943 -23037.644103   5245.115621
PE12 -18781.982395   3857.720195 -22549.992368   4954.828762
PE13   1148.417693 -18260.883459  23272.754402    422.726071
PE14 -23903.436147  15447.966390 -14210.213230  -1608.995801
PE15  18754.352255  -3827.942699  22581.597103    786.085567
PE18  22442.172368  -7831.656762   5811.752051  -1767.373487
PE19 -24341.726596  -2994.033123 -16573.553674    405.130602
PE21  -6485.107456 -24648.201935  15063.361113   -694.324404
PE24  -7444.304108  28324.239015   4209.715884  -1177.490474
PE25   6326.307952  24792.234242 -14864.402137   -550.448161
PE26 -17679.685630 -21851.302722   9307.345252   1216.189558
PE27   6650.298719 -28671.631006  -3186.730301   -144.881359
PE30  16175.013024 -14524.376379 -20096.075890   2530.861915
PE31 -15789.059429  15782.959894  19449.548724   -486.923790
PE33 -25260.139355 -12830.112948  -8576.519641   -463.609453
PE36  17057.584375  21896.030026 -10275.575861   -277.642428
PG01  20747.708026  11927.043410  11602.026306    536.023041
PG02 -12498.493595 -21458.933301   9957.991935   -637.997847
PG03  14555.409564   3539.975833  21825.533982   -329.138822
PG04  25212.210775   1448.777903   8345.159365   -203.499048
PG05  -8320.629020 -17594.611867 -18168.449690    -58.057791
PG06    174.654514 -18636.418284  18961.954642     97.195622
PG07  16706.453936  -2862.708414 -20193.671000    264.338459
PG08  18525.168697   8055.001460 -17418.753050    -40.541611
PG09  25234.661607  -7878.559011  -2792.560206   -361.857280
PG10 -11651.147078  22902.568180  -5969.156826   -226.456406
PG12 -13684.640532  -5807.528493  21759.613545   -113.255870
PG13 -10953.164691 -13249.662973 -20436.449694    201.307081
PG14  12788.917123 -22492.280153  -5869.047585    -21.234048
PG15 -19746.744817  -6677.414084 -17040.310484   -113.099302
PG16   3444.376577  20541.496550 -16455.162897   -409.011365
PG17  17739.304546 -13018.803152  15322.650444    520.838211
PG18 -15302.558569   4571.159181 -21247.534988    308.627310
PG19   9390.852069 -14414.925603  19920.441848     67.405878
PG20  -2454.600042 -25060.470554  -8882.783738    518.579740
PG21  21272.226011  15971.617301   4416.698412    148.139445
PG22  12677.887203  12000.350758  20240.718739   -486.452763
PG23 -15660.016335  14496.208272 -15785.460489     43.702946
PG24 -21762.987399 -13913.457891   6770.792219    255.356021
PG25 -16416.035455   6140.085556  19611.747718    226.302863
PG26  -3909.083935  25800.344777  -4089.471163    146.105465
PG27   8351.635196  13258.264573 -21676.680594   -207.760899
PG28   9318.983685 -24951.167944   1944.232459    480.302872
PG29 -26378.543238   3368.843524    340.604978   -427.923644
PG30   8489.053241 -13760.321735 -20971.460931   -483.432063
PG31   1017.721381  19882.327801  17241.350834   -145.548784
PG32 -13681.958349  15223.028725  16943.611743    -11.475668
PJ01 -30459.731930  29095.878911   7217.345105    167.862260
PJ02 -27911.250332  26769.904188  21645.943878     -3.632834
PJ03 -30291.645379  15716.634844 -20168.008023     -4.062148
PJ07 -25383.388210  33664.869595     60.608608     -0.113541
PR01  20755.517738 -12656.492417   7705.543388     86.855141
PR02  13243.171969 -17988.431991 -12344.687801    497.064172
PR03  -2174.163465 -11937.112511 -22410.106055     44.896042
PR04 -15987.355502    899.897242 -19831.823321    109.955575
PR05 -21010.780624  13033.818599  -6211.136777     80.896115
PR07   2906.583889  11464.846265  22623.650467    -40.564388
PR08  16113.573385   -885.324193  19811.145848    -61.538355
PR09  -1447.023168  23060.362629  10908.270068     18.874287
PR11  11456.487472  11286.047693 -19790.051276     49.829453
PR12   9265.126311  -8703.013659 -22087.418297    271.038873
PR13   1814.566120 -22553.664697 -11788.102203    -62.274612
PR14  -7080.221165 -23619.436125   6519.356989     70.039489
PR15 -11473.440672 -10731.901847  20120.457131    100.782538
PR16  -8841.174535  10072.393407  21659.756534    -23.375816
PR17 -14165.401450 -13521.513891  16384.289998    467.294571
PR18 -23507.096552  -9807.216846    906.867412     94.175254
PR19 -20984.768511  -2062.914047 -14363.840567   -163.574867
PR20  -4427.134061   9337.259616 -23312.024064    -57.762410
PR21  15188.660282  13470.708496 -15418.377189   -247.659153
PR22  23700.205391   9555.034851    104.387590   -139.617692
PR24   3699.137879 -10168.006932  23117.563894     63.195562
EOF
